ELYSIUM STAR 2 & LFF    
1 43760U 18099C   24167.18837318  .00036920  00000+0  14350-2 0  9990
2 43760  97.5164 234.7768 0005317 262.7895  97.2738 15.25942406302937
